{
  "type": "FeatureCollection",
  "features": [
    {
      "type": "Feature",
      "properties": {
        "norad_id": 31367,
        "name": "FENGYUN 1C DEB",
        "group": "fengyun-1c-debris",
        "lat": 8.583023762147539,
        "lon": 68.7898360817757,
        "alt_km": 805.6099530589108,
        "timestamp": "2025-12-18T23:35:49.342652+00:00",
        "meta_object_name": "FENGYUN 1C DEB",
        "meta_object_id": "1999-025BRX",
        "meta_epoch": "2025-12-17T23:38:24.694656",
        "meta_mean_motion": 14.47512158,
        "meta_eccentricity": 0.00991591,
        "meta_inclination": 98.7463,
        "meta_ra_of_asc_node": 246.4267,
        "meta_arg_of_pericenter": 0.7022,
        "meta_mean_anomaly": 11.6916,
        "meta_ephemeris_type": 0,
        "meta_classification_type": "U",
        "meta_norad_cat_id": 31367,
        "meta_element_set_no": 999,
        "meta_rev_at_epoch": 98542,
        "meta_bstar": 0.0004763628,
        "meta_mean_motion_dot": 1.81e-05,
        "meta_mean_motion_ddot": 0,
        "tle_line1": "1 31367U 99025BRX 25351.98500804  .00001810  00000+0  47636-3 0  9993",
        "tle_line2": "2 31367  98.7463 246.4267 0099159   0.7022  11.6916 14.47512158985424"
      },
      "geometry": {
        "type": "Point",
        "coordinates": [
          68.7898360817757,
          8.583023762147539
        ]
      }
    },
    {
      "type": "Feature",
      "properties": {
        "norad_id": 31369,
        "name": "FENGYUN 1C DEB",
        "group": "fengyun-1c-debris",
        "lat": -48.55987505287774,
        "lon": -16.016621903945463,
        "alt_km": 799.8792996731463,
        "timestamp": "2025-12-18T23:35:49.342662+00:00",
        "meta_object_name": "FENGYUN 1C DEB",
        "meta_object_id": "1999-025BRZ",
        "meta_epoch": "2025-12-13T17:46:59.452032",
        "meta_mean_motion": 14.19412375,
        "meta_eccentricity": 0.005436,
        "meta_inclination": 98.6192,
        "meta_ra_of_asc_node": 328.9902,
        "meta_arg_of_pericenter": 296.6832,
        "meta_mean_anomaly": 241.5666,
        "meta_ephemeris_type": 0,
        "meta_classification_type": "U",
        "meta_norad_cat_id": 31369,
        "meta_element_set_no": 999,
        "meta_rev_at_epoch": 64341,
        "meta_bstar": 0.00041020724,
        "meta_mean_motion_dot": 8.32e-06,
        "meta_mean_motion_ddot": 0,
        "tle_line1": "1 31369U 99025BRZ 25347.74096588  .00000832  00000+0  41021-3 0  9998",
        "tle_line2": "2 31369  98.6192 328.9902 0054360 296.6832 241.5666 14.19412375643411"
      },
      "geometry": {
        "type": "Point",
        "coordinates": [
          -16.016621903945463,
          -48.55987505287774
        ]
      }
    },
    {
      "type": "Feature",
      "properties": {
        "norad_id": 31370,
        "name": "FENGYUN 1C DEB",
        "group": "fengyun-1c-debris",
        "lat": -46.09737626894493,
        "lon": 163.61011188440568,
        "alt_km": 852.5370300940958,
        "timestamp": "2025-12-18T23:35:49.342672+00:00",
        "meta_object_name": "FENGYUN 1C DEB",
        "meta_object_id": "1999-025BSA",
        "meta_epoch": "2025-12-18T10:35:51.641952",
        "meta_mean_motion": 14.09714607,
        "meta_eccentricity": 0.00331839,
        "meta_inclination": 98.7533,
        "meta_ra_of_asc_node": 352.2955,
        "meta_arg_of_pericenter": 281.205,
        "meta_mean_anomaly": 78.5392,
        "meta_ephemeris_type": 0,
        "meta_classification_type": "U",
        "meta_norad_cat_id": 31370,
        "meta_element_set_no": 999,
        "meta_rev_at_epoch": 96374,
        "meta_bstar": 0.00035450044,
        "meta_mean_motion_dot": 5.82e-06,
        "meta_mean_motion_ddot": 0,
        "tle_line1": "1 31370U 99025BSA 25352.44156993  .00000582  00000+0  35450-3 0  9991",
        "tle_line2": "2 31370  98.7533 352.2955 0033183 281.2050  78.5392 14.09714607963740"
      },
      "geometry": {
        "type": "Point",
        "coordinates": [
          163.61011188440568,
          -46.09737626894493
        ]
      }
    },
    {
      "type": "Feature",
      "properties": {
        "norad_id": 31371,
        "name": "FENGYUN 1C DEB",
        "group": "fengyun-1c-debris",
        "lat": 13.028111305558369,
        "lon": 23.713369186801064,
        "alt_km": 924.9604711391594,
        "timestamp": "2025-12-18T23:35:49.342682+00:00",
        "meta_object_name": "FENGYUN 1C DEB",
        "meta_object_id": "1999-025BSB",
        "meta_epoch": "2025-12-17T08:12:36.107712",
        "meta_mean_motion": 14.0451849,
        "meta_eccentricity": 0.00779585,
        "meta_inclination": 98.7657,
        "meta_ra_of_asc_node": 24.1749,
        "meta_arg_of_pericenter": 233.7068,
        "meta_mean_anomaly": 125.6882,
        "meta_ephemeris_type": 0,
        "meta_classification_type": "U",
        "meta_norad_cat_id": 31371,
        "meta_element_set_no": 999,
        "meta_rev_at_epoch": 95811,
        "meta_bstar": 0.00054981638,
        "meta_mean_motion_dot": 8.59e-06,
        "meta_mean_motion_ddot": 0,
        "tle_line1": "1 31371U 99025BSB 25351.34208458  .00000859  00000+0  54982-3 0  9992",
        "tle_line2": "2 31371  98.7657  24.1749 0077958 233.7068 125.6882 14.04518490958113"
      },
      "geometry": {
        "type": "Point",
        "coordinates": [
          23.713369186801064,
          13.028111305558369
        ]
      }
    },
    {
      "type": "Feature",
      "properties": {
        "norad_id": 31372,
        "name": "FENGYUN 1C DEB",
        "group": "fengyun-1c-debris",
        "lat": -66.85129318149399,
        "lon": 141.7346396957269,
        "alt_km": 834.2403998940672,
        "timestamp": "2025-12-18T23:35:49.342693+00:00",
        "meta_object_name": "FENGYUN 1C DEB",
        "meta_object_id": "1999-025BSC",
        "meta_epoch": "2025-12-15T22:03:16.354656",
        "meta_mean_motion": 14.26562101,
        "meta_eccentricity": 0.00338949,
        "meta_inclination": 99.374,
        "meta_ra_of_asc_node": 341.1848,
        "meta_arg_of_pericenter": 66.0499,
        "meta_mean_anomaly": 294.4222,
        "meta_ephemeris_type": 0,
        "meta_classification_type": "U",
        "meta_norad_cat_id": 31372,
        "meta_element_set_no": 999,
        "meta_rev_at_epoch": 95896,
        "meta_bstar": 0.001209619,
        "meta_mean_motion_dot": 2.887e-05,
        "meta_mean_motion_ddot": 0,
        "tle_line1": "1 31372U 99025BSC 25349.91893929  .00002887  00000+0  12096-2 0  9998",
        "tle_line2": "2 31372  99.3740 341.1848 0033894  66.0499 294.4222 14.26562101958960"
      },
      "geometry": {
        "type": "Point",
        "coordinates": [
          141.7346396957269,
          -66.85129318149399
        ]
      }
    },
    {
      "type": "Feature",
      "properties": {
        "norad_id": 31376,
        "name": "FENGYUN 1C DEB",
        "group": "fengyun-1c-debris",
        "lat": -40.22670795486211,
        "lon": 82.06022411707974,
        "alt_km": 663.5548033989171,
        "timestamp": "2025-12-18T23:35:49.342703+00:00",
        "meta_object_name": "FENGYUN 1C DEB",
        "meta_object_id": "1999-025BSG",
        "meta_epoch": "2025-12-18T06:09:33.873984",
        "meta_mean_motion": 14.61820827,
        "meta_eccentricity": 0.00486312,
        "meta_inclination": 98.8348,
        "meta_ra_of_asc_node": 268.844,
        "meta_arg_of_pericenter": 251.5547,
        "meta_mean_anomaly": 108.0362,
        "meta_ephemeris_type": 0,
        "meta_classification_type": "U",
        "meta_norad_cat_id": 31376,
        "meta_element_set_no": 999,
        "meta_rev_at_epoch": 98223,
        "meta_bstar": 0.0018162436,
        "meta_mean_motion_dot": 9.179e-05,
        "meta_mean_motion_ddot": 0,
        "tle_line1": "1 31376U 99025BSG 25352.25664206  .00009179  00000+0  18162-2 0  9998",
        "tle_line2": "2 31376  98.8348 268.8440 0048631 251.5547 108.0362 14.61820827982238"
      },
      "geometry": {
        "type": "Point",
        "coordinates": [
          82.06022411707974,
          -40.22670795486211
        ]
      }
    },
    {
      "type": "Feature",
      "properties": {
        "norad_id": 31378,
        "name": "FENGYUN 1C DEB",
        "group": "fengyun-1c-debris",
        "lat": 8.810092356332879,
        "lon": 64.44502062232408,
        "alt_km": 843.8007344894841,
        "timestamp": "2025-12-18T23:35:49.342714+00:00",
        "meta_object_name": "FENGYUN 1C DEB",
        "meta_object_id": "1999-025BSJ",
        "meta_epoch": "2025-12-15T23:25:55.260192",
        "meta_mean_motion": 13.80081198,
        "meta_eccentricity": 0.01683642,
        "meta_inclination": 100.7566,
        "meta_ra_of_asc_node": 239.3423,
        "meta_arg_of_pericenter": 189.6652,
        "meta_mean_anomaly": 170.1243,
        "meta_ephemeris_type": 0,
        "meta_classification_type": "U",
        "meta_norad_cat_id": 31378,
        "meta_element_set_no": 999,
        "meta_rev_at_epoch": 94268,
        "meta_bstar": 0.00064817453,
        "meta_mean_motion_dot": 6.94e-06,
        "meta_mean_motion_ddot": 0,
        "tle_line1": "1 31378U 99025BSJ 25349.97633403  .00000694  00000+0  64817-3 0  9992",
        "tle_line2": "2 31378 100.7566 239.3423 0168364 189.6652 170.1243 13.80081198942686"
      },
      "geometry": {
        "type": "Point",
        "coordinates": [
          64.44502062232408,
          8.810092356332879
        ]
      }
    }
  ]
}